[{"OBJECT_NAME":"SCISAT 1","OBJECT_ID":"2003-036A","EPOCH":"2026-03-09T22:52:31.276992","MEAN_MOTION":14.8131333,"ECCENTRICITY":0.00057868,"INCLINATION":73.9323,"RA_OF_ASC_NODE":8.49,"ARG_OF_PERICENTER":97.7053,"MEAN_ANOMALY":262.4781,"EPHEMERIS_TYPE":0,"CLASSIFICATION_TYPE":"U","NORAD_CAT_ID":27858,"ELEMENT_SET_NO":999,"REV_AT_EPOCH":21675,"BSTAR":0.00015871313,"MEAN_MOTION_DOT":1.203e-5,"MEAN_MOTION_DDOT":0},{"OBJECT_NAME":"SL-8 DEB","OBJECT_ID":"1978-019C","EPOCH":"2026-03-09T22:47:56.244192","MEAN_MOTION":14.82587479,"ECCENTRICITY":0.00065803,"INCLINATION":74.0522,"RA_OF_ASC_NODE":262.5604,"ARG_OF_PERICENTER":38.2559,"MEAN_ANOMALY":321.9085,"EPHEMERIS_TYPE":0,"CLASSIFICATION_TYPE":"U","NORAD_CAT_ID":13500,"ELEMENT_SET_NO":999,"REV_AT_EPOCH":61197,"BSTAR":0.00075454331,"MEAN_MOTION_DOT":6.045e-5,"MEAN_MOTION_DDOT":0}]
